[{"OBJECT_NAME":"UNKNOWN","OBJECT_ID":"","EPOCH":"2026-04-22T20:29:52.117152","MEAN_MOTION":14.36294479,"ECCENTRICITY":0.0096152,"INCLINATION":66.7688,"RA_OF_ASC_NODE":162.5848,"ARG_OF_PERICENTER":216.2119,"MEAN_ANOMALY":143.2449,"EPHEMERIS_TYPE":0,"CLASSIFICATION_TYPE":"U","NORAD_CAT_ID":82597,"ELEMENT_SET_NO":999,"REV_AT_EPOCH":64780,"BSTAR":0.00031865,"MEAN_MOTION_DOT":8.94e-6,"MEAN_MOTION_DDOT":0},{"OBJECT_NAME":"UNKNOWN","OBJECT_ID":"","EPOCH":"2026-04-24T15:48:56.385216","MEAN_MOTION":14.49605814,"ECCENTRICITY":0.003931,"INCLINATION":74.029,"RA_OF_ASC_NODE":354.1068,"ARG_OF_PERICENTER":264.5172,"MEAN_ANOMALY":95.1504,"EPHEMERIS_TYPE":0,"CLASSIFICATION_TYPE":"U","NORAD_CAT_ID":82617,"ELEMENT_SET_NO":999,"REV_AT_EPOCH":65608,"BSTAR":9.1705e-5,"MEAN_MOTION_DOT":3.27e-6,"MEAN_MOTION_DDOT":0},{"OBJECT_NAME":"UNKNOWN","OBJECT_ID":"","EPOCH":"2026-04-25T13:15:13.817664","MEAN_MOTION":13.16500896,"ECCENTRICITY":0.0019368,"INCLINATION":82.4774,"RA_OF_ASC_NODE":153.2138,"ARG_OF_PERICENTER":129.3568,"MEAN_ANOMALY":23.6189,"EPHEMERIS_TYPE":0,"CLASSIFICATION_TYPE":"U","NORAD_CAT_ID":82627,"ELEMENT_SET_NO":999,"REV_AT_EPOCH":59643,"BSTAR":0.00092521,"MEAN_MOTION_DOT":3.66e-6,"MEAN_MOTION_DDOT":0},{"OBJECT_NAME":"UNKNOWN","OBJECT_ID":"","EPOCH":"2026-04-24T12:09:18.633024","MEAN_MOTION":14.07804122,"ECCENTRICITY":0.0133141,"INCLINATION":98.9745,"RA_OF_ASC_NODE":29.1982,"ARG_OF_PERICENTER":225.4417,"MEAN_ANOMALY":133.582,"EPHEMERIS_TYPE":0,"CLASSIFICATION_TYPE":"U","NORAD_CAT_ID":82642,"ELEMENT_SET_NO":999,"REV_AT_EPOCH":63481,"BSTAR":0.00051232,"MEAN_MOTION_DOT":8.96e-6,"MEAN_MOTION_DDOT":0},{"OBJECT_NAME":"UNKNOWN","OBJECT_ID":"","EPOCH":"2026-04-25T02:47:33.427104","MEAN_MOTION":14.20508965,"ECCENTRICITY":0.0209386,"INCLINATION":98.1525,"RA_OF_ASC_NODE":178.9676,"ARG_OF_PERICENTER":5.6454,"MEAN_ANOMALY":354.7014,"EPHEMERIS_TYPE":0,"CLASSIFICATION_TYPE":"U","NORAD_CAT_ID":82683,"ELEMENT_SET_NO":999,"REV_AT_EPOCH":48120,"BSTAR":0.00025985,"MEAN_MOTION_DOT":6.54e-6,"MEAN_MOTION_DDOT":0},{"OBJECT_NAME":"UNKNOWN","OBJECT_ID":"","EPOCH":"2026-04-24T16:52:47.688672","MEAN_MOTION":13.70258304,"ECCENTRICITY":0.0044986,"INCLINATION":100.5282,"RA_OF_ASC_NODE":95.5064,"ARG_OF_PERICENTER":52.7389,"MEAN_ANOMALY":307.7844,"EPHEMERIS_TYPE":0,"CLASSIFICATION_TYPE":"U","NORAD_CAT_ID":82693,"ELEMENT_SET_NO":999,"REV_AT_EPOCH":57196,"BSTAR":0.0022689,"MEAN_MOTION_DOT":1.964e-5,"MEAN_MOTION_DDOT":0},{"OBJECT_NAME":"UNKNOWN","OBJECT_ID":"","EPOCH":"2026-04-25T03:04:27.977376","MEAN_MOTION":13.29950152,"ECCENTRICITY":0.0692187,"INCLINATION":61.6063,"RA_OF_ASC_NODE":153.0572,"ARG_OF_PERICENTER":339.1386,"MEAN_ANOMALY":18.2585,"EPHEMERIS_TYPE":0,"CLASSIFICATION_TYPE":"U","NORAD_CAT_ID":82698,"ELEMENT_SET_NO":999,"REV_AT_EPOCH":55611,"BSTAR":0.00049551,"MEAN_MOTION_DOT":7.87e-6,"MEAN_MOTION_DDOT":0},{"OBJECT_NAME":"UNKNOWN","OBJECT_ID":"","EPOCH":"2026-04-25T08:18:29.569248","MEAN_MOTION":12.90821587,"ECCENTRICITY":0.0068112,"INCLINATION":102.1556,"RA_OF_ASC_NODE":336.4253,"ARG_OF_PERICENTER":14.8489,"MEAN_ANOMALY":345.4583,"EPHEMERIS_TYPE":0,"CLASSIFICATION_TYPE":"U","NORAD_CAT_ID":82708,"ELEMENT_SET_NO":999,"REV_AT_EPOCH":54075,"BSTAR":0.0027828,"MEAN_MOTION_DOT":6.91e-6,"MEAN_MOTION_DDOT":0},{"OBJECT_NAME":"UNKNOWN","OBJECT_ID":"","EPOCH":"2026-04-04T13:55:07.864896","MEAN_MOTION":12.17870007,"ECCENTRICITY":0.0835282,"INCLINATION":67.9711,"RA_OF_ASC_NODE":310.745,"ARG_OF_PERICENTER":293.8433,"MEAN_ANOMALY":57.7215,"EPHEMERIS_TYPE":0,"CLASSIFICATION_TYPE":"U","NORAD_CAT_ID":82729,"ELEMENT_SET_NO":999,"REV_AT_EPOCH":54894,"BSTAR":0.00014194,"MEAN_MOTION_DOT":-1.0e-8,"MEAN_MOTION_DDOT":0},{"OBJECT_NAME":"UNKNOWN","OBJECT_ID":"","EPOCH":"2026-04-23T08:53:00.432960","MEAN_MOTION":13.83035375,"ECCENTRICITY":0.0169387,"INCLINATION":99.0999,"RA_OF_ASC_NODE":270.2897,"ARG_OF_PERICENTER":300.6786,"MEAN_ANOMALY":90.8382,"EPHEMERIS_TYPE":0,"CLASSIFICATION_TYPE":"U","NORAD_CAT_ID":82739,"ELEMENT_SET_NO":999,"REV_AT_EPOCH":62430,"BSTAR":0.00059831,"MEAN_MOTION_DOT":6.86e-6,"MEAN_MOTION_DDOT":0},{"OBJECT_NAME":"UNKNOWN","OBJECT_ID":"","EPOCH":"2026-04-25T04:25:28.653888","MEAN_MOTION":13.6662642,"ECCENTRICITY":0.0193331,"INCLINATION":102.8418,"RA_OF_ASC_NODE":198.6284,"ARG_OF_PERICENTER":327.0507,"MEAN_ANOMALY":31.8696,"EPHEMERIS_TYPE":0,"CLASSIFICATION_TYPE":"U","NORAD_CAT_ID":82741,"ELEMENT_SET_NO":999,"REV_AT_EPOCH":61530,"BSTAR":0.0018342,"MEAN_MOTION_DOT":1.663e-5,"MEAN_MOTION_DDOT":0},{"OBJECT_NAME":"UNKNOWN","OBJECT_ID":"","EPOCH":"2026-04-25T05:46:09.266592","MEAN_MOTION":13.09178034,"ECCENTRICITY":0.0024249,"INCLINATION":90.3491,"RA_OF_ASC_NODE":42.4557,"ARG_OF_PERICENTER":102.058,"MEAN_ANOMALY":258.3266,"EPHEMERIS_TYPE":0,"CLASSIFICATION_TYPE":"U","NORAD_CAT_ID":82783,"ELEMENT_SET_NO":999,"REV_AT_EPOCH":52182,"BSTAR":0.0049671,"MEAN_MOTION_DOT":1.715e-5,"MEAN_MOTION_DDOT":0},{"OBJECT_NAME":"UNKNOWN","OBJECT_ID":"","EPOCH":"2026-04-24T16:40:08.910912","MEAN_MOTION":14.23530488,"ECCENTRICITY":0.0031012,"INCLINATION":82.9476,"RA_OF_ASC_NODE":85.1796,"ARG_OF_PERICENTER":124.1245,"MEAN_ANOMALY":53.5753,"EPHEMERIS_TYPE":0,"CLASSIFICATION_TYPE":"U","NORAD_CAT_ID":82798,"ELEMENT_SET_NO":999,"REV_AT_EPOCH":33128,"BSTAR":0.00068954,"MEAN_MOTION_DOT":1.593e-5,"MEAN_MOTION_DDOT":0},{"OBJECT_NAME":"UNKNOWN","OBJECT_ID":"","EPOCH":"2026-04-24T22:39:22.817376","MEAN_MOTION":14.3599661,"ECCENTRICITY":0.0047572,"INCLINATION":99.7974,"RA_OF_ASC_NODE":298.5485,"ARG_OF_PERICENTER":356.6957,"MEAN_ANOMALY":3.3904,"EPHEMERIS_TYPE":0,"CLASSIFICATION_TYPE":"U","NORAD_CAT_ID":82820,"ELEMENT_SET_NO":999,"REV_AT_EPOCH":64474,"BSTAR":0.00064683,"MEAN_MOTION_DOT":1.849e-5,"MEAN_MOTION_DDOT":0},{"OBJECT_NAME":"UNKNOWN","OBJECT_ID":"","EPOCH":"2026-04-13T20:43:37.930080","MEAN_MOTION":13.88301386,"ECCENTRICITY":0.0128892,"INCLINATION":82.6905,"RA_OF_ASC_NODE":328.7876,"ARG_OF_PERICENTER":295.922,"MEAN_ANOMALY":62.8705,"EPHEMERIS_TYPE":0,"CLASSIFICATION_TYPE":"U","NORAD_CAT_ID":82854,"ELEMENT_SET_NO":999,"REV_AT_EPOCH":62474,"BSTAR":0.00070691,"MEAN_MOTION_DOT":9.17e-6,"MEAN_MOTION_DDOT":0},{"OBJECT_NAME":"UNKNOWN","OBJECT_ID":"","EPOCH":"2026-04-25T00:27:11.932704","MEAN_MOTION":14.25470774,"ECCENTRICITY":0.003738,"INCLINATION":99.9934,"RA_OF_ASC_NODE":32.516,"ARG_OF_PERICENTER":275.2012,"MEAN_ANOMALY":84.4898,"EPHEMERIS_TYPE":0,"CLASSIFICATION_TYPE":"U","NORAD_CAT_ID":82873,"ELEMENT_SET_NO":999,"REV_AT_EPOCH":64021,"BSTAR":0.001058,"MEAN_MOTION_DOT":2.462e-5,"MEAN_MOTION_DDOT":0},{"OBJECT_NAME":"UNKNOWN","OBJECT_ID":"","EPOCH":"2026-04-25T05:37:17.594688","MEAN_MOTION":14.15413554,"ECCENTRICITY":0.0376042,"INCLINATION":98.6919,"RA_OF_ASC_NODE":100.4424,"ARG_OF_PERICENTER":260.0386,"MEAN_ANOMALY":95.816,"EPHEMERIS_TYPE":0,"CLASSIFICATION_TYPE":"U","NORAD_CAT_ID":82875,"ELEMENT_SET_NO":999,"REV_AT_EPOCH":56335,"BSTAR":9.7503e-5,"MEAN_MOTION_DOT":3.19e-6,"MEAN_MOTION_DDOT":0}]
