UNKNOWN                 
1 82597U          26112.85407543  .00000894  00000+0  31865-3 0  9995
2 82597  66.7688 162.5848 0096152 216.2119 143.2449 14.36294479647804
UNKNOWN                 
1 82617U          26114.65898594  .00000327  00000+0  91705-4 0  9999
2 82617  74.0290 354.1068 0039310 264.5172  95.1504 14.49605814656089
UNKNOWN                 
1 82627U          26115.55224326  .00000366  00000+0  92521-3 0  9995
2 82627  82.4774 153.2138 0019368 129.3568  23.6189 13.16500896596438
UNKNOWN                 
1 82642U          26114.50646566  .00000896  00000+0  51232-3 0  9992
2 82642  98.9745  29.1982 0133141 225.4417 133.5820 14.07804122634818
UNKNOWN                 
1 82683U          26115.11635911  .00000654  00000+0  25985-3 0  9995
2 82683  98.1525 178.9676 0209386   5.6454 354.7014 14.20508965481204
UNKNOWN                 
1 82693U          26114.70332973  .00001964  00000+0  22689-2 0  9994
2 82693 100.5282  95.5064 0044986  52.7389 307.7844 13.70258304571966
UNKNOWN                 
1 82698U          26115.12810159  .00000787  00000+0  49551-3 0  9993
2 82698  61.6063 153.0572 0692187 339.1386  18.2585 13.29950152556110
UNKNOWN                 
1 82708U          26115.34617557  .00000691  00000+0  27828-2 0  9992
2 82708 102.1556 336.4253 0068112  14.8489 345.4583 12.90821587540751
UNKNOWN                 
1 82729U          26094.57995214 -.00000001  00000+0  14194-3 0  9994
2 82729  67.9711 310.7450 0835282 293.8433  57.7215 12.17870007548941
UNKNOWN                 
1 82739U          26113.37014390  .00000686  00000+0  59831-3 0  9997
2 82739  99.0999 270.2897 0169387 300.6786  90.8382 13.83035375624308
UNKNOWN                 
1 82741U          26115.18435942  .00001663  00000+0  18342-2 0  9998
2 82741 102.8418 198.6284 0193331 327.0507  31.8696 13.66626420615304
UNKNOWN                 
1 82783U          26115.24038503  .00001715  00000+0  49671-2 0  9990
2 82783  90.3491  42.4557 0024249 102.0580 258.3266 13.09178034521826
UNKNOWN                 
1 82798U          26114.69454758  .00001593  00000+0  68954-3 0  9998
2 82798  82.9476  85.1796 0031012 124.1245  53.5753 14.23530488331287
UNKNOWN                 
1 82820U          26114.94401409  .00001849  00000+0  64683-3 0  9996
2 82820  99.7974 298.5485 0047572 356.6957   3.3904 14.35996610644742
UNKNOWN                 
1 82854U          26103.86363345  .00000917  00000+0  70691-3 0  9999
2 82854  82.6905 328.7876 0128892 295.9220  62.8705 13.88301386624741
UNKNOWN                 
1 82873U          26115.01888811  .00002462  00000+0  10580-2 0  9997
2 82873  99.9934  32.5160 0037380 275.2012  84.4898 14.25470774640215
UNKNOWN                 
1 82875U          26115.23423142  .00000319  00000+0  97503-4 0  9996
2 82875  98.6919 100.4424 0376042 260.0386  95.8160 14.15413554563350
